[{"OBJECT_NAME":"R2","OBJECT_ID":"2020-081J","EPOCH":"2026-03-09T01:19:00.333408","MEAN_MOTION":15.23806181,"ECCENTRICITY":0.0005079,"INCLINATION":36.8981,"RA_OF_ASC_NODE":317.5127,"ARG_OF_PERICENTER":163.7384,"MEAN_ANOMALY":196.3528,"EPHEMERIS_TYPE":0,"CLASSIFICATION_TYPE":"U","NORAD_CAT_ID":46913,"ELEMENT_SET_NO":999,"REV_AT_EPOCH":29669,"BSTAR":0.000513162,"MEAN_MOTION_DOT":0.00012575,"MEAN_MOTION_DDOT":0},{"OBJECT_NAME":"SL-14 R\/B","OBJECT_ID":"2009-003B","EPOCH":"2026-03-09T22:56:16.948608","MEAN_MOTION":15.18255832,"ECCENTRICITY":0.00217716,"INCLINATION":82.3842,"RA_OF_ASC_NODE":305.4853,"ARG_OF_PERICENTER":18.7466,"MEAN_ANOMALY":341.4564,"EPHEMERIS_TYPE":0,"CLASSIFICATION_TYPE":"U","NORAD_CAT_ID":33505,"ELEMENT_SET_NO":999,"REV_AT_EPOCH":94237,"BSTAR":9.9679257e-5,"MEAN_MOTION_DOT":2.085e-5,"MEAN_MOTION_DDOT":0}]
